[{"OBJECT_NAME":"STARLINK-11118 [DTC]","OBJECT_ID":"2024-091B","EPOCH":"2026-03-09T15:45:32.893344","MEAN_MOTION":15.69687859,"ECCENTRICITY":0.00014487,"INCLINATION":53.1587,"RA_OF_ASC_NODE":206.7582,"ARG_OF_PERICENTER":78.579,"MEAN_ANOMALY":281.539,"EPHEMERIS_TYPE":0,"CLASSIFICATION_TYPE":"U","NORAD_CAT_ID":59754,"ELEMENT_SET_NO":999,"REV_AT_EPOCH":10550,"BSTAR":-3.0711163e-5,"MEAN_MOTION_DOT":-4.304e-5,"MEAN_MOTION_DDOT":0},{"OBJECT_NAME":"OBJECT AC","OBJECT_ID":"2021-022AC","EPOCH":"2026-03-09T23:52:41.913120","MEAN_MOTION":15.70257251,"ECCENTRICITY":0.00077249,"INCLINATION":97.3906,"RA_OF_ASC_NODE":343.806,"ARG_OF_PERICENTER":62.9634,"MEAN_ANOMALY":297.2416,"EPHEMERIS_TYPE":0,"CLASSIFICATION_TYPE":"U","NORAD_CAT_ID":47958,"ELEMENT_SET_NO":999,"REV_AT_EPOCH":27427,"BSTAR":0.0010525747,"MEAN_MOTION_DOT":0.00129469,"MEAN_MOTION_DDOT":0}]
